GSAT0101 (PRN E11)      
1 37846U 11060A   23295.39671629 -.00000084  00000+0  00000+0 0  9991
2 37846  57.1137   7.9989 0000426 346.0255  14.0225  1.70475754 74604
GSAT0102 (PRN E12)      
1 37847U 11060B   23295.31561841 -.00000084  00000+0  00000+0 0  9998
2 37847  57.1142   8.0011 0002255 300.1433  56.3050  1.70475176 74603
GSAT0103 (PRN E19)      
1 38857U 12055A   23295.43586575  .00000073  00000+0  00000+0 0  9996
2 38857  55.3022 128.1697 0002075 242.2734 117.7754  1.70473571 68496
GSAT0104 (PRN E20)      
1 38858U 12055B   23294.81866630  .00000071  00000+0  00000+0 0  9999
2 38858  55.3019 128.1881 0001297 143.4630 216.6147  1.70473816 68598
GSAT0201 (PRN E18)      
1 40128U 14050A   23295.31348702 -.00000031  00000+0  00000+0 0  9997
2 40128  49.8926 312.6464 1607282 142.1923 230.2868  1.85519251 60348
GSAT0202 (PRN E14)      
1 40129U 14050B   23296.65067956 -.00000036  00000+0  00000+0 0  9990
2 40129  49.9103 311.6654 1605242 143.0526 229.1802  1.85519922 62500
GSAT0203 (PRN E26)      
1 40544U 15017A   23295.76263665 -.00000086  00000+0  00000+0 0  9996
2 40544  56.9087   7.9553 0004786 242.3069 117.6931  1.70476022 53357
GSAT0204 (PRN E22)      
1 40545U 15017B   23296.01641739 -.00000087  00000+0  00000+0 0  9999
2 40545  56.9151   7.9628 0004642 229.2859 130.7221  1.70475540 53368
GSAT0205 (PRN E24)      
1 40889U 15045A   23295.78446084  .00000002  00000+0  00000+0 0  9996
2 40889  55.3387 248.3587 0004431   9.9321 350.0576  1.70472856 50501
GSAT0206 (PRN E30)      
1 40890U 15045B   23295.41854737  .00000005  00000+0  00000+0 0  9999
2 40890  55.3379 248.3643 0002888 349.4053  10.5710  1.70472908 50523
GSAT0209 (PRN E09)      
1 41174U 15079A   23295.00343453  .00000071  00000+0  00000+0 0  9998
2 41174  55.3201 127.8889 0001975 345.9248  14.1384  1.70474167 48252
GSAT0208 (PRN E08)      
1 41175U 15079B   23295.22307543  .00000072  00000+0  00000+0 0  9994
2 41175  55.3185 127.8809 0001370   1.8276 358.2420  1.70474054 48836
GSAT0211 (PRN E02)      
1 41549U 16030A   23295.34423903  .00000006  00000+0  00000+0 0  9996
2 41549  55.4854 248.3519 0004068 327.5139  32.4437  1.70472977 46159
GSAT0210 (PRN E01)      
1 41550U 16030B   23295.04911192  .00000009  00000+0  00000+0 0  9990
2 41550  55.4850 248.3611 0003588 290.8988  69.0463  1.70473229 46145
GSAT0207 (PRN E07)      
1 41859U 16069A   23295.29724783  .00000071  00000+0  00000+0 0  9998
2 41859  54.9835 127.9409 0001715 311.7985  48.2561  1.70474084 43102
GSAT0212 (PRN E03)      
1 41860U 16069B   23295.15184864  .00000071  00000+0  00000+0 0  9995
2 41860  54.9812 127.9418 0001805  29.3641 330.7150  1.70474322 43131
GSAT0213 (PRN E04)      
1 41861U 16069C   23294.93169962  .00000070  00000+0  00000+0 0  9992
2 41861  54.9831 127.9539 0001808 258.5805 101.4678  1.70472971 42997
GSAT0214 (PRN E05)      
1 41862U 16069D   23295.07897945  .00000071  00000+0  00000+0 0  9999
2 41862  54.9813 127.9438 0000845 252.1903 107.8693  1.70472848 43121
GSAT0215 (PRN E21)      
1 43055U 17079A   23295.56741279  .00000004  00000+0  00000+0 0  9995
2 43055  55.4614 248.1709 0003026 286.3348  73.6138  1.70473662 36474
GSAT0216 (PRN E25)      
1 43056U 17079B   23296.44587178 -.00000004  00000+0  00000+0 0  9991
2 43056  55.4618 248.1466 0004597 287.2988  72.6286  1.70473783 36470
GSAT0217 (PRN E27)      
1 43057U 17079C   23295.49308122  .00000005  00000+0  00000+0 0  9996
2 43057  55.4601 248.1718 0004279 299.4316  60.5079  1.70473775 36477
GSAT0218 (PRN E31)      
1 43058U 17079D   23295.71313048  .00000003  00000+0  00000+0 0  9993
2 43058  55.4602 248.1633 0005028 282.5328  77.3923  1.70473752 36473
GSAT0221 (PRN E15)      
1 43564U 18060A   23295.02634225 -.00000083  00000+0  00000+0 0  9992
2 43564  57.2894   7.9156 0004506 259.9422 100.0570  1.70475870 32642
GSAT0222 (PRN E33)      
1 43565U 18060B   23294.07132733 -.00000080  00000+0  00000+0 0  9991
2 43565  57.2927   7.9426 0004494 229.7964 130.2160  1.70475760 32673
GSAT0219 (PRN E36)      
1 43566U 18060C   23295.46675739 -.00000084  00000+0  00000+0 0  9998
2 43566  57.2922   7.9070 0003450 262.7813  97.2288  1.70476016 32673
GSAT0220 (PRN E13)      
1 43567U 18060D   23294.51403803 -.00000081  00000+0  00000+0 0  9992
2 43567  57.2916   7.9334 0003645 258.2478 101.7622  1.70475778 32636
GSAT0223 (PRN E34)      
1 49809U 21116A   23296.13083405 -.00000087  00000+0  00000+0 0  9991
2 49809  57.2833   7.7852 0003672 203.0466 159.5359  1.70475915 11679
GSAT0224 (PRN E10)      
1 49810U 21116B   23296.52544486 -.00000088  00000+0  00000+0 0  9998
2 49810  57.2840   7.7729 0002961 199.3735 157.8764  1.70475916 11704
